IRIDIUM 116             
1 43072U 17083C   24246.46073090 -.00000078  00000+0 -35071-4 0  9998
2 43072  86.3942 234.7498 0002124  90.4365 269.7074 14.34217029350616
IRIDIUM 130             
1 43073U 17083D   24246.42901420  .00000192  00000+0  61666-4 0  9996
2 43073  86.3947 234.9746 0002185  89.7272 270.4174 14.34219694350558
IRIDIUM 151             
1 43074U 17083E   24246.47341519  .00000257  00000+0  84620-4 0  9996
2 43074  86.3941 234.7873 0002472  90.6446 269.5033 14.34219422350580
IRIDIUM 134             
1 43075U 17083F   24246.51147106 -.00000052  00000+0 -25496-4 0  9999
2 43075  86.3945 234.7708 0001972  90.3516 269.7906 14.34217234350558
IRIDIUM 137             
1 43076U 17083G   24246.52415719  .00000084  00000+0  23010-4 0  9992
2 43076  86.3944 234.8447 0002581  99.0893 261.0594 14.34217696350628
IRIDIUM 141             
1 43077U 17083H   24246.51781416  .00000268  00000+0  88464-4 0  9990
2 43077  86.3939 234.7153 0002289  83.9662 276.1795 14.34218661350620
IRIDIUM 153             
1 43078U 17083J   24246.60951587  .00001058  00000+0  37075-3 0  9998
2 43078  86.4010 203.1744 0002715  73.4474 286.7019 14.34226135351742
IRIDIUM 131             
1 43079U 17083K   24246.50512872 -.00000005  00000+0 -89666-5 0  9996
2 43079  86.3948 234.8630 0002334  92.1054 268.0409 14.34217559350550
